ONEWEB-0395             
1 50475U 21132G   26193.57387408  .00000549  00000+0  15132-2 0  9994
2 50475  87.8880  16.0114 0002014  84.1928 275.9429 13.11417124219043
ONEWEB-0396             
1 50476U 21132H   26193.35824748  .00000010  00000+0 -62147-5 0  9999
2 50476  87.9194 330.4500 0001779  92.8281 267.3054 13.18686138224955
ONEWEB-0397             
1 50477U 21132J   26192.84228381 -.00000055  00000+0 -17315-3 0  9999
2 50477  87.9193 330.5521 0001669  95.3304 264.8019 13.18686258224867
ONEWEB-0398             
1 50478U 21132K   26193.54165012 -.00000478  00000+0 -13851-2 0  9998
2 50478  87.8891  16.0109 0002313  91.3671 268.7722 13.11417320218930
ONEWEB-0399             
1 50479U 21132L   26193.52808778 -.00000353  00000+0 -10328-2 0  9998
2 50479  87.8889  16.0240 0001602  75.2110 284.9196 13.11415897218924
ONEWEB-0400             
1 50480U 21132M   26193.50324345  .00000025  00000+0  31177-4 0  9992
2 50480  87.9195 330.4107 0002044  97.0044 263.1320 13.18684483224944
ONEWEB-0401             
1 50481U 21132N   26192.86589437  .00000036  00000+0  57536-4 0  9995
2 50481  87.9194 330.5348 0001738 102.4059 257.7268 13.18686439224862
ONEWEB-0402             
1 50482U 21132P   26192.82879025  .00000008  00000+0 -12155-4 0  9995
2 50482  87.9191 330.5311 0001496 106.7299 253.3997 13.18687201224885
ONEWEB-0403             
1 50483U 21132Q   26193.38522570 -.00000001  00000+0 -35765-4 0  9994
2 50483  87.9199 330.4450 0001857 101.1717 258.9624 13.18686578224910
ONEWEB-0404             
1 50484U 21132R   26193.50944107  .00000327  00000+0  88663-3 0  9996
2 50484  87.8881  16.0249 0001850  79.0980 281.0356 13.11414606219017
ONEWEB-0405             
1 50485U 21132S   26192.86757223  .00000015  00000+0  43789-5 0  9992
2 50485  87.9197 330.5327 0002369  97.2358 262.9044 13.18684568225244
ONEWEB-0406             
1 50486U 21132T   26192.85914406  .00000108  00000+0  24228-3 0  9998
2 50486  87.9190 330.5495 0001878  80.6505 279.4839 13.18687335224876
ONEWEB-0407             
1 50487U 21132U   26192.85239082  .00000013  00000+0 -65689-6 0  9994
2 50487  87.9196 330.5440 0001944 103.3398 256.7951 13.18688210224810
ONEWEB-0409             
1 50488U 21132V   26193.50775085  .00000390  00000+0  10638-2 0  9993
2 50488  87.8888  16.0143 0001961  82.7443 277.3908 13.11415093218908
ONEWEB-0412             
1 50489U 21132W   26192.84059770 -.00000026  00000+0 -98941-4 0  9999
2 50489  87.9188 330.5541 0001617 103.6692 256.4621 13.18686583224904
ONEWEB-0413             
1 50490U 21132X   26192.84565560 -.00000047  00000+0 -15101-3 0  9999
2 50490  87.9184 330.5495 0001744 108.5875 251.5447 13.18688049224842
ONEWEB-0414             
1 50491U 21132Y   26193.36161580  .00000025  00000+0  31745-4 0  9999
2 50491  87.9194 330.4315 0001722  97.4384 262.6944 13.18686823224945
ONEWEB-0417             
1 50492U 21132Z   26192.83890844 -.00000025  00000+0 -95286-4 0  9995
2 50492  87.9188 330.5528 0001888  91.6360 268.4988 13.18686747224856
ONEWEB-0418             
1 50493U 21132AA  26193.38002171 -.00000004  00000+0 -44038-4 0  9991
2 50493  87.9198 330.4457 0001881  97.8395 262.2951 13.18686315224984
ONEWEB-0419             
1 50494U 21132AB  26193.47488352  .00000034  00000+0  52291-4 0  9992
2 50494  87.9193 330.4280 0002095  93.4030 266.7342 13.18666437224919
ONEWEB-0420             
1 50495U 21132AC  26193.36328702  .00000072  00000+0  14893-3 0  9990
2 50495  87.9184 330.4510 0001974 103.1738 256.9615 13.18687684224893
ONEWEB-0421             
1 50496U 21132AD  26193.35656742  .00000018  00000+0  13360-4 0  9997
2 50496  87.9179 330.4515 0001468 103.2474 256.8822 13.18686033224930
ONEWEB-0424             
1 50497U 21132AE  26193.31777999  .00000014  00000+0  28758-5 0  9996
2 50497  87.9185 330.4580 0002138  91.2744 268.8633 13.18686790224956
ONEWEB-0426             
1 50498U 21132AF  26193.35234635  .00000007  00000+0 -14187-4 0  9999
2 50498  87.9193 330.4419 0001445  77.8718 282.2576 13.18685564224907
ONEWEB-0427             
1 50499U 21132AG  26193.39197121 -.00000001  00000+0 -35901-4 0  9994
2 50499  87.9194 330.4231 0001784  92.7162 267.4174 13.18686510224930
ONEWEB-0429             
1 50500U 21132AH  26193.37846938 -.00000026  00000+0 -99690-4 0  9994
2 50500  87.9185 330.4487 0001868 101.6818 258.4524 13.18687226224908
ONEWEB-0430             
1 50501U 21132AJ  26193.36666605  .00000027  00000+0  36776-4 0  9990
2 50501  87.9193 330.4496 0002187 112.6476 247.4887 13.18688289224949
ONEWEB-0432             
1 50502U 21132AK  26193.34968133  .00000061  00000+0  12247-3 0  9994
2 50502  87.9194 330.4388 0002361  98.8948 261.2451 13.18686277224894
ONEWEB-0440             
1 50503U 21132AL  26193.38690424  .00000034  00000+0  54198-4 0  9996
2 50503  87.9198 330.4430 0001636 106.8866 253.2446 13.18687111224893
ONEWEB-0450             
1 50504U 21132AM  26193.38030037  .00000051  00000+0  95797-4 0  9994
2 50504  87.9185 330.4470 0001989 102.4507 257.6848 13.18687281224925
