OBJECT_NAME,OBJECT_ID,EPOCH,MEAN_MOTION,ECCENTRICITY,INCLINATION,RA_OF_ASC_NODE,ARG_OF_PERICENTER,MEAN_ANOMALY,EPHEMERIS_TYPE,CLASSIFICATION_TYPE,NORAD_CAT_ID,ELEMENT_SET_NO,REV_AT_EPOCH,BSTAR,MEAN_MOTION_DOT,MEAN_MOTION_DDOT
ONEWEB-0395,2021-132G,2026-07-12T13:46:22.720512,13.11417124,.00020149,87.8880,16.0114,84.1928,275.9429,0,U,50475,999,21904,.15132466E-2,.549E-5,0
ONEWEB-0396,2021-132H,2026-07-12T08:35:52.582272,13.18686138,.00017795,87.9194,330.4500,92.8281,267.3054,0,U,50476,999,22495,-.6214714E-5,.1E-6,0
ONEWEB-0397,2021-132J,2026-07-11T20:12:53.321184,13.18686258,.00016696,87.9193,330.5521,95.3304,264.8019,0,U,50477,999,22486,-.17315423E-3,-.55E-6,0
ONEWEB-0398,2021-132K,2026-07-12T12:59:58.570368,13.11417320,.00023138,87.8891,16.0109,91.3671,268.7722,0,U,50478,999,21893,-.13851222E-2,-.478E-5,0
ONEWEB-0399,2021-132L,2026-07-12T12:40:26.784192,13.11415897,.00016028,87.8889,16.0240,75.2110,284.9196,0,U,50479,999,21892,-.10328439E-2,-.353E-5,0
ONEWEB-0400,2021-132M,2026-07-12T12:04:40.234080,13.18684483,.00020445,87.9195,330.4107,97.0044,263.1320,0,U,50480,999,22494,.31176963E-4,.25E-6,0
ONEWEB-0401,2021-132N,2026-07-11T20:46:53.273568,13.18686439,.00017385,87.9194,330.5348,102.4059,257.7268,0,U,50481,999,22486,.57535812E-4,.36E-6,0
ONEWEB-0402,2021-132P,2026-07-11T19:53:27.477600,13.18687201,.00014961,87.9191,330.5311,106.7299,253.3997,0,U,50482,999,22488,-.12154791E-4,.8E-7,0
ONEWEB-0403,2021-132Q,2026-07-12T09:14:43.500480,13.18686578,.00018572,87.9199,330.4450,101.1717,258.9624,0,U,50483,999,22491,-.35765372E-4,-.1E-7,0
ONEWEB-0404,2021-132R,2026-07-12T12:13:35.708448,13.11414606,.00018506,87.8881,16.0249,79.0980,281.0356,0,U,50484,999,21901,.88663488E-3,.327E-5,0
ONEWEB-0405,2021-132S,2026-07-11T20:49:18.240672,13.18684568,.00023693,87.9197,330.5327,97.2358,262.9044,0,U,50485,999,22524,.4378872E-5,.15E-6,0
ONEWEB-0406,2021-132T,2026-07-11T20:37:10.046784,13.18687335,.00018783,87.9190,330.5495,80.6505,279.4839,0,U,50486,999,22487,.24228277E-3,.108E-5,0
ONEWEB-0407,2021-132U,2026-07-11T20:27:26.566848,13.18688210,.00019449,87.9196,330.5440,103.3398,256.7951,0,U,50487,999,22481,-.656891E-6,.13E-6,0
ONEWEB-0409,2021-132V,2026-07-12T12:11:09.673440,13.11415093,.00019616,87.8888,16.0143,82.7443,277.3908,0,U,50488,999,21890,.10637581E-2,.39E-5,0
ONEWEB-0412,2021-132W,2026-07-11T20:10:27.641280,13.18686583,.00016171,87.9188,330.5541,103.6692,256.4621,0,U,50489,999,22490,-.98940787E-4,-.26E-6,0
ONEWEB-0413,2021-132X,2026-07-11T20:17:44.643840,13.18688049,.00017449,87.9184,330.5495,108.5875,251.5447,0,U,50490,999,22484,-.15101255E-3,-.47E-6,0
ONEWEB-0414,2021-132Y,2026-07-12T08:40:43.605120,13.18686823,.00017227,87.9194,330.4315,97.4384,262.6944,0,U,50491,999,22494,.31745053E-4,.25E-6,0
ONEWEB-0417,2021-132Z,2026-07-11T20:08:01.689216,13.18686747,.00018882,87.9188,330.5528,91.6360,268.4988,0,U,50492,999,22485,-.95286169E-4,-.25E-6,0
ONEWEB-0418,2021-132AA,2026-07-12T09:07:13.875744,13.18686315,.00018819,87.9198,330.4457,97.8395,262.2951,0,U,50493,999,22498,-.44037967E-4,-.4E-7,0
ONEWEB-0419,2021-132AB,2026-07-12T11:23:49.936128,13.18666437,.00020958,87.9193,330.4280,93.4030,266.7342,0,U,50494,999,22491,.52291002E-4,.34E-6,0
ONEWEB-0420,2021-132AC,2026-07-12T08:43:07.998528,13.18687684,.00019747,87.9184,330.4510,103.1738,256.9615,0,U,50495,999,22489,.14892548E-3,.72E-6,0
ONEWEB-0421,2021-132AD,2026-07-12T08:33:27.425088,13.18686033,.00014682,87.9179,330.4515,103.2474,256.8822,0,U,50496,999,22493,.13360349E-4,.18E-6,0
ONEWEB-0424,2021-132AE,2026-07-12T07:37:36.191136,13.18686790,.00021382,87.9185,330.4580,91.2744,268.8633,0,U,50497,999,22495,.2875821E-5,.14E-6,0
ONEWEB-0426,2021-132AF,2026-07-12T08:27:22.724640,13.18685564,.00014458,87.9193,330.4419,77.8718,282.2576,0,U,50498,999,22490,-.14186939E-4,.7E-7,0
ONEWEB-0427,2021-132AG,2026-07-12T09:24:26.312544,13.18686510,.00017842,87.9194,330.4231,92.7162,267.4174,0,U,50499,999,22493,-.35901403E-4,-.1E-7,0
ONEWEB-0429,2021-132AH,2026-07-12T09:04:59.754432,13.18687226,.00018684,87.9185,330.4487,101.6818,258.4524,0,U,50500,999,22490,-.99690339E-4,-.26E-6,0
ONEWEB-0430,2021-132AJ,2026-07-12T08:47:59.946720,13.18688289,.00021872,87.9193,330.4496,112.6476,247.4887,0,U,50501,999,22494,.36776403E-4,.27E-6,0
ONEWEB-0432,2021-132AK,2026-07-12T08:23:32.466912,13.18686277,.0002361,87.9194,330.4388,98.8948,261.2451,0,U,50502,999,22489,.12246968E-3,.61E-6,0
ONEWEB-0440,2021-132AL,2026-07-12T09:17:08.526336,13.18687111,.0001636,87.9198,330.4430,106.8866,253.2446,0,U,50503,999,22489,.54198131E-4,.34E-6,0
ONEWEB-0450,2021-132AM,2026-07-12T09:07:37.951968,13.18687281,.00019896,87.9185,330.4470,102.4507,257.6848,0,U,50504,999,22492,.95797124E-4,.51E-6,0
